LYNK TOWER 4            
1 55034U 23001AB  26068.67743801  .00009160  00000+0  30014-3 0  9997
2 55034  97.3324 128.5940 0010321 112.3386 247.8950 15.31819885176588
STARLINK-35348          
1 65904U 25224Y   26068.27384828  .00026666  00000+0  90926-3 0  9997
2 65904  53.1596  13.0618 0001080  66.3027 293.8087 15.30198600 24766
